OBJECT_NAME,OBJECT_ID,EPOCH,MEAN_MOTION,ECCENTRICITY,INCLINATION,RA_OF_ASC_NODE,ARG_OF_PERICENTER,MEAN_ANOMALY,EPHEMERIS_TYPE,CLASSIFICATION_TYPE,NORAD_CAT_ID,ELEMENT_SET_NO,REV_AT_EPOCH,BSTAR,MEAN_MOTION_DOT,MEAN_MOTION_DDOT
CAS500-2 RIDESHARE OBJECT AF,2026-100AF,2026-07-14T16:21:47.300544,15.20748185,.00028938,97.4010,92.9707,225.2554,134.8446,0,U,69009,999,1098,.2702995E-3,.5882E-4,0
DRISHTI,2026-100AG,2026-07-14T15:54:33.224256,15.20576177,.00037453,97.4007,92.9922,303.5358,56.5519,0,U,69010,999,1098,.64744055E-4,.135E-4,0
EYCORE-1,2026-100AH,2026-07-15T04:22:10.037568,15.20866552,.0002878,97.4015,93.5300,311.7344,48.3645,0,U,69011,999,1106,.10975E-3,.2355E-4,0
JACKAL-004,2026-100AJ,2026-07-15T10:37:40.702080,15.21789232,.0005408,97.4619,93.8626,354.2552,5.8621,0,U,69012,999,1110,.95308E-4,.2093E-4,0
CAS500-2,2026-100AK,2026-07-15T04:22:49.365120,15.20902116,.000781,97.3868,93.5066,292.1380,67.9026,0,U,69013,999,1106,.15437E-3,.3346E-4,0
CAS500-2 RIDESHARE OBJECT AL,2026-100AL,2026-07-14T16:41:51.526464,15.21380722,.00049914,97.4035,93.1315,338.0455,22.0566,0,U,69014,999,1099,.10464349E-3,.2277E-4,0
FRONTIERSAT,2026-100AM,2026-07-15T04:48:57.132000,15.22121415,.0006444,97.3968,93.6018,315.3915,44.6802,0,U,69015,999,1108,.20923E-3,.4727E-4,0
RAVEN,2026-100AN,2026-07-15T03:30:18.701856,15.21492948,.0006744,97.3998,93.5565,323.4192,36.6583,0,U,69016,999,1106,.60973E-4,.1303E-4,0
PELICAN-7,2026-100AP,2026-07-14T16:03:15.069888,15.23602267,.00031038,97.3863,93.1242,89.2047,270.9546,0,U,69017,999,1099,.29118581E-4,.627E-5,0
EDDA-1,2026-100AQ,2026-07-14T16:13:55.946208,15.23952428,.0004074,97.3779,93.0972,125.2799,234.8820,0,U,69018,999,1100,.61447489E-3,.14811E-3,0
PELICAN-9,2026-100AR,2026-07-14T15:29:31.892928,15.22416343,.00002557,97.3677,92.9304,356.4900,3.6335,0,U,69019,999,1098,.53115447E-4,.1159E-4,0
SELENE,2026-100AS,2026-07-15T03:42:26.482752,15.20157370,.0002464,97.4010,93.4067,223.0525,137.0518,0,U,69020,999,1105,.13161E-3,.2779E-4,0
HELIOS,2026-100AT,2026-07-14T22:48:53.186976,15.20357964,.000282,97.3995,93.2037,237.2410,122.8554,0,U,69021,999,1102,.16551E-3,.3534E-4,0
HYDRA-3,2026-100AU,2026-07-15T03:37:14.486304,15.20205864,.0003063,97.3996,93.3935,244.4807,115.6112,0,U,69022,999,1105,.12368E-3,.2612E-4,0
QUBE-II,2026-100AV,2026-07-15T03:19:16.364640,15.20616713,.0001048,97.4041,93.4610,241.2531,118.8599,0,U,69023,999,1105,.2045E-3,.4416E-4,0
BALKAN-2,2026-100AW,2026-07-15T03:26:03.438240,15.20349692,.0001409,97.4038,93.4532,251.3728,108.7354,0,U,69024,999,1105,.12796E-3,.2716E-4,0
STARLINK-37592,2026-101A,2026-07-15T03:32:15.237312,15.33442924,.0001603,97.2844,50.5356,103.1555,256.9867,0,U,69025,999,1085,.28588E-3,.9165E-4,0
STARLINK-37637,2026-101B,2026-07-15T02:45:16.413120,15.33437858,.0001739,97.2848,50.5781,90.1815,269.9627,0,U,69026,999,1085,.20068E-3,.6408E-4,0
STARLINK-37548,2026-101C,2026-07-15T03:08:47.795136,15.33424451,.0001974,97.2847,50.5584,98.8138,261.3328,0,U,69027,999,1085,.51695E-3,.16641E-3,0
STARLINK-37634,2026-101D,2026-07-15T03:55:44.621760,15.33460915,.0001732,97.2842,50.6653,90.3828,269.7613,0,U,69028,999,1086,.41715E-3,.13423E-3,0
STARLINK-37635,2026-101E,2026-07-15T03:20:30.658272,15.33438068,.0001779,97.2846,50.5472,93.8609,266.2837,0,U,69029,999,1085,.17385E-3,.5541E-4,0
STARLINK-37615,2026-101F,2026-07-15T02:57:01.094112,15.33430615,.0001903,97.2845,50.5689,99.3614,260.7844,0,U,69030,999,1085,.30083E-3,.9645E-4,0
STARLINK-37240,2026-101G,2026-07-15T04:07:29.528256,15.33442455,.0001494,97.2847,50.6538,93.5814,266.5599,0,U,69031,999,1086,.29703E-3,.9525E-4,0
STARLINK-37596,2026-101H,2026-07-15T03:44:00.236256,15.33441119,.0001634,97.2843,50.6737,90.5525,269.5905,0,U,69032,999,1086,.33558E-3,.10773E-3,0
STARLINK-37591,2026-101J,2026-07-15T03:04:50.882016,15.33442596,.0001742,97.2847,50.5606,90.2418,269.9024,0,U,69033,999,1085,.26045E-3,.8342E-4,0
STARLINK-37611,2026-101K,2026-07-15T03:16:35.500800,15.33446167,.000168,97.2841,50.5481,108.0160,252.1266,0,U,69034,999,1085,.27393E-3,.8779E-4,0
STARLINK-37512,2026-101L,2026-07-15T03:51:50.036256,15.33440756,.0001802,97.2846,50.6671,91.5779,268.5670,0,U,69035,999,1086,.25466E-3,.8154E-4,0
STARLINK-37609,2026-101M,2026-07-15T04:15:19.476000,15.33440420,.000169,97.2845,50.6455,90.1993,269.9443,0,U,69036,999,1086,.25995E-3,.8325E-4,0
STARLINK-37608,2026-101N,2026-07-15T04:03:36.136800,15.33457346,.0002726,97.2833,50.6581,67.0327,293.1203,0,U,69037,999,1086,.22541E-3,.7212E-4,0
STARLINK-37466,2026-101P,2026-07-15T03:36:10.238400,15.33441719,.0001393,97.2844,50.6810,97.2121,262.9280,0,U,69038,999,1086,.2081E-3,.6649E-4,0
