CAS500-2 RIDESHARE OBJE*
1 69009U 26100AF  26195.68179746  .00005882  00000+0  27030-3 0  9991
2 69009  97.4010  92.9707 0002893 225.2554 134.8446 15.20748185 10987
DRISHTI                 
1 69010U 26100AG  26195.66288454  .00001350  00000+0  64744-4 0  9998
2 69010  97.4007  92.9922 0003745 303.5358  56.5519 15.20576177 10984
EYCORE-1                
1 69011U 26100AH  26196.18206062  .00002355  00000+0  10975-3 0  9994
2 69011  97.4015  93.5300 0002878 311.7344  48.3645 15.20866552 11061
JACKAL-004              
1 69012U 26100AJ  26196.44283220  .00002093  00000+0  95308-4 0  9998
2 69012  97.4619  93.8626 0005408 354.2552   5.8621 15.21789232 11108
CAS500-2                
1 69013U 26100AK  26196.18251580  .00003346  00000+0  15437-3 0  9990
2 69013  97.3868  93.5066 0007810 292.1380  67.9026 15.20902116 11067
CAS500-2 RIDESHARE OBJE*
1 69014U 26100AL  26195.69573526  .00002277  00000+0  10464-3 0  9990
2 69014  97.4035  93.1315 0004991 338.0455  22.0566 15.21380722 10994
FRONTIERSAT             
1 69015U 26100AM  26196.20066125  .00004727  00000+0  20923-3 0  9994
2 69015  97.3968  93.6018 0006444 315.3915  44.6802 15.22121415 11085
RAVEN                   
1 69016U 26100AN  26196.14604979  .00001303  00000+0  60973-4 0  9990
2 69016  97.3998  93.5565 0006744 323.4192  36.6583 15.21492948 11061
PELICAN-7               
1 69017U 26100AP  26195.66892442  .00000627  00000+0  29119-4 0  9996
2 69017  97.3863  93.1242 0003103  89.2047 270.9546 15.23602267 10995
EDDA-1                  
1 69018U 26100AQ  26195.67634197  .00014811  00000+0  61447-3 0  9998
2 69018  97.3779  93.0972 0004074 125.2799 234.8820 15.23952428 11008
PELICAN-9               
1 69019U 26100AR  26195.64550802  .00001159  00000+0  53115-4 0  9991
2 69019  97.3677  92.9304 0000255 356.4900   3.6335 15.22416343 10981
SELENE                  
1 69020U 26100AS  26196.15447318  .00002779  00000+0  13161-3 0  9992
2 69020  97.4010  93.4067 0002464 223.0525 137.0518 15.20157370 11057
HELIOS                  
1 69021U 26100AT  26195.95061559  .00003534  00000+0  16551-3 0  9995
2 69021  97.3995  93.2037 0002820 237.2410 122.8554 15.20357964 11020
HYDRA-3                 
1 69022U 26100AU  26196.15086211  .00002612  00000+0  12368-3 0  9999
2 69022  97.3996  93.3935 0003063 244.4807 115.6112 15.20205864 11054
QUBE-II                 
1 69023U 26100AV  26196.13838385  .00004416  00000+0  20450-3 0  9990
2 69023  97.4041  93.4610 0001048 241.2531 118.8599 15.20616713 11051
BALKAN-2                
1 69024U 26100AW  26196.14309535  .00002716  00000+0  12796-3 0  9997
2 69024  97.4038  93.4532 0001409 251.3728 108.7354 15.20349692 11058
STARLINK-37592          
1 69025U 26101A   26196.14739858  .00009165  00000+0  28588-3 0  9995
2 69025  97.2844  50.5356 0001603 103.1555 256.9867 15.33442924 10856
STARLINK-37637          
1 69026U 26101B   26196.11477330  .00006408  00000+0  20068-3 0  9999
2 69026  97.2848  50.5781 0001739  90.1815 269.9627 15.33437858 10855
STARLINK-37548          
1 69027U 26101C   26196.13110874  .00016641  00000+0  51695-3 0  9999
2 69027  97.2847  50.5584 0001974  98.8138 261.3328 15.33424451 10859
STARLINK-37634          
1 69028U 26101D   26196.16371090  .00013423  00000+0  41715-3 0  9999
2 69028  97.2842  50.6653 0001732  90.3828 269.7613 15.33460915 10863
STARLINK-37635          
1 69029U 26101E   26196.13924373  .00005541  00000+0  17385-3 0  9993
2 69029  97.2846  50.5472 0001779  93.8609 266.2837 15.33438068 10855
STARLINK-37615          
1 69030U 26101F   26196.12292933  .00009645  00000+0  30083-3 0  9993
2 69030  97.2845  50.5689 0001903  99.3614 260.7844 15.33430615 10859
STARLINK-37240          
1 69031U 26101G   26196.17186954  .00009525  00000+0  29703-3 0  9998
2 69031  97.2847  50.6538 0001494  93.5814 266.5599 15.33442455 10866
STARLINK-37596          
1 69032U 26101H   26196.15555829  .00010773  00000+0  33558-3 0  9998
2 69032  97.2843  50.6737 0001634  90.5525 269.5905 15.33441119 10866
STARLINK-37591          
1 69033U 26101J   26196.12836669  .00008342  00000+0  26045-3 0  9992
2 69033  97.2847  50.5606 0001742  90.2418 269.9024 15.33442596 10858
STARLINK-37611          
1 69034U 26101K   26196.13652200  .00008779  00000+0  27393-3 0  9992
2 69034  97.2841  50.5481 0001680 108.0160 252.1266 15.33446167 10857
STARLINK-37512          
1 69035U 26101L   26196.16099579  .00008154  00000+0  25466-3 0  9996
2 69035  97.2846  50.6671 0001802  91.5779 268.5670 15.33440756 10862
STARLINK-37609          
1 69036U 26101M   26196.17730875  .00008325  00000+0  25995-3 0  9996
2 69036  97.2845  50.6455 0001690  90.1993 269.9443 15.33440420 10861
STARLINK-37608          
1 69037U 26101N   26196.16916825  .00007212  00000+0  22541-3 0  9995
2 69037  97.2833  50.6581 0002726  67.0327 293.1203 15.33457346 10862
STARLINK-37466          
1 69038U 26101P   26196.15011850  .00006649  00000+0  20810-3 0  9999
2 69038  97.2844  50.6810 0001393  97.2121 262.9280 15.33441719 10862
